{"fetched_at":"2026-05-15T21:01:08Z","count":2793,"tles":[{"name":"TEVEL2-8","line1":"1 63239U 25052AF  26134.93898130  .00010088  00000+0  34396-3 0  9998","line2":"2 63239  97.3989  30.2594 0004126 255.2527 104.8257 15.30550062 64930","category":"Other"},{"name":"TEVEL2-9","line1":"1 63237U 25052AD  26134.43870574  .00009524  00000+0  32215-3 0  9994","line2":"2 63237  97.3986  29.8531 0004094 256.4762 103.6023 15.30826446 64860","category":"Other"},{"name":"TEVEL2-7","line1":"1 63238U 25052AE  26134.93109666  .00010292  00000+0  35064-3 0  9996","line2":"2 63238  97.3987  30.2735 0004162 254.2876 105.7906 15.30568116 64930","category":"Other"},{"name":"HADES-ICM","line1":"1 63492U 25052BN  26134.66594319  .00814630  30058-3  18659-2 0  9999","line2":"2 63492  97.3756  38.9409 0009810 172.9860 187.1556 15.97319467 65508","category":"Other"},{"name":"FORESAIL-1 PRIME","line1":"1 66778U 25276DS  26134.45592384  .00003138  00000+0  15594-3 0  9993","line2":"2 66778  97.4211 208.3508 0001932 182.3815 177.7411 15.18376987 25289","category":"Other"}]}