OBJECT_NAME,OBJECT_ID,EPOCH,MEAN_MOTION,ECCENTRICITY,INCLINATION,RA_OF_ASC_NODE,ARG_OF_PERICENTER,MEAN_ANOMALY,EPHEMERIS_TYPE,CLASSIFICATION_TYPE,NORAD_CAT_ID,ELEMENT_SET_NO,REV_AT_EPOCH,BSTAR,MEAN_MOTION_DOT,MEAN_MOTION_DDOT
TEVEL2-9,2025-052AD,2026-05-14T10:31:44.175936,15.30826446,.00040943,97.3986,29.8531,256.4762,103.6023,0,U,63237,999,6486,.32214862E-3,.9524E-4,0
TEVEL2-7,2025-052AE,2026-05-14T22:20:46.751424,15.30568116,.00041628,97.3987,30.2735,254.2876,105.7906,0,U,63238,999,6493,.35064083E-3,.10292E-3,0
TEVEL2-8,2025-052AF,2026-05-14T22:32:07.984320,15.30550062,.00041268,97.3989,30.2594,255.2527,104.8257,0,U,63239,999,6493,.34395666E-3,.10088E-3,0
HADES-ICM,2025-052BN,2026-05-14T15:58:57.491616,15.97319467,.00098101,97.3756,38.9409,172.9860,187.1556,0,U,63492,999,6550,.18658871E-2,.81463E-2,.30057774E-3
FORESAIL-1 PRIME,2025-276DS,2026-05-14T10:56:31.819776,15.18376987,.00019322,97.4211,208.3508,182.3815,177.7411,0,U,66778,999,2528,.15593721E-3,.3138E-4,0
